{
  "type": "FeatureCollection",
  "name": "Hospitais de Referência Macrorregiões de Saúde - Minas Gerais",
  "crs": {
    "type": "name",
    "properties": {
      "name": "urn:ogc:def:crs:OGC:1.3:CRS84"
    }
  },
  "features": [
    {
      "type": "Feature",
      "properties": {
        "Nome do Hospital": "Hospital João XXIII",
        "Município": "Belo Horizonte",
        "Macrorregião de Saúde": "CENTRO",
        "Latitude": -19.9258,
        "Longitude": -43.9314
      },
      "geometry": {
        "type": "Point",
        "coordinates": [-43.9314, -19.9258]
      }
    },
    {
      "type": "Feature",
      "properties": {
        "Nome do Hospital": "Hospital das Clínicas da UFMG",
        "Município": "Belo Horizonte",
        "Macrorregião de Saúde": "CENTRO",
        "Latitude": -19.9247,
        "Longitude": -43.9280
      },
      "geometry": {
        "type": "Point",
        "coordinates": [-43.9280, -19.9247]
      }
    },
    {
      "type": "Feature",
      "properties": {
        "Nome do Hospital": "Santa Casa de Belo Horizonte",
        "Município": "Belo Horizonte",
        "Macrorregião de Saúde": "CENTRO",
        "Latitude": -19.9228,
        "Longitude": -43.9274
      },
      "geometry": {
        "type": "Point",
        "coordinates": [-43.9274, -19.9228]
      }
    },
    {
      "type": "Feature",
      "properties": {
        "Nome do Hospital": "Hospital Júlia Kubitschek",
        "Município": "Belo Horizonte",
        "Macrorregião de Saúde": "CENTRO",
        "Latitude": -19.9200,
        "Longitude": -43.9500
      },
      "geometry": {
        "type": "Point",
        "coordinates": [-43.9500, -19.9200]
      }
    },
    {
      "type": "Feature",
      "properties": {
        "Nome do Hospital": "Hospital Metropolitano Dr. Célio de Castro",
        "Município": "Belo Horizonte",
        "Macrorregião de Saúde": "CENTRO",
        "Latitude": -19.9100,
        "Longitude": -43.9400
      },
      "geometry": {
        "type": "Point",
        "coordinates": [-43.9400, -19.9100]
      }
    },
    {
      "type": "Feature",
      "properties": {
        "Nome do Hospital": "Hospital Metropolitano Odilon Behrens",
        "Município": "Belo Horizonte",
        "Macrorregião de Saúde": "CENTRO",
        "Latitude": -19.9150,
        "Longitude": -43.9450
      },
      "geometry": {
        "type": "Point",
        "coordinates": [-43.9450, -19.9150]
      }
    },
    {
      "type": "Feature",
      "properties": {
        "Nome do Hospital": "Hospital Risoleta Tolentino Neves",
        "Município": "Belo Horizonte",
        "Macrorregião de Saúde": "CENTRO",
        "Latitude": -19.8500,
        "Longitude": -43.9800
      },
      "geometry": {
        "type": "Point",
        "coordinates": [-43.9800, -19.8500]
      }
    },
    {
      "type": "Feature",
      "properties": {
        "Nome do Hospital": "Hospital Sofia Feldman",
        "Município": "Belo Horizonte",
        "Macrorregião de Saúde": "CENTRO",
        "Latitude": -19.9300,
        "Longitude": -43.9200
      },
      "geometry": {
        "type": "Point",
        "coordinates": [-43.9200, -19.9300]
      }
    },
    {
      "type": "Feature",
      "properties": {
        "Nome do Hospital": "Hospital Municipal de Contagem",
        "Município": "Contagem",
        "Macrorregião de Saúde": "CENTRO",
        "Latitude": -19.9317,
        "Longitude": -44.0539
      },
      "geometry": {
        "type": "Point",
        "coordinates": [-44.0539, -19.9317]
      }
    },
    {
      "type": "Feature",
      "properties": {
        "Nome do Hospital": "Hospital Público Regional de Betim",
        "Município": "Betim",
        "Macrorregião de Saúde": "CENTRO",
        "Latitude": -19.9678,
        "Longitude": -44.1983
      },
      "geometry": {
        "type": "Point",
        "coordinates": [-44.1983, -19.9678]
      }
    },
    {
      "type": "Feature",
      "properties": {
        "Nome do Hospital": "Hospital Municipal/Regional de Ibirité",
        "Município": "Ibirité",
        "Macrorregião de Saúde": "CENTRO",
        "Latitude": -20.0219,
        "Longitude": -44.0589
      },
      "geometry": {
        "type": "Point",
        "coordinates": [-44.0589, -20.0219]
      }
    },
    {
      "type": "Feature",
      "properties": {
        "Nome do Hospital": "Hospital Nossa Senhora das Graças",
        "Município": "Sete Lagoas",
        "Macrorregião de Saúde": "CENTRO",
        "Latitude": -19.4658,
        "Longitude": -44.2467
      },
      "geometry": {
        "type": "Point",
        "coordinates": [-44.2467, -19.4658]
      }
    },
    {
      "type": "Feature",
      "properties": {
        "Nome do Hospital": "Hospital Regional de Barbacena Dr. José Américo",
        "Município": "Barbacena",
        "Macrorregião de Saúde": "CENTRO SUL",
        "Latitude": -21.2258,
        "Longitude": -43.7736
      },
      "geometry": {
        "type": "Point",
        "coordinates": [-43.7736, -21.2258]
      }
    },
    {
      "type": "Feature",
      "properties": {
        "Nome do Hospital": "Hospital Regional de Conselheiro Lafaiete",
        "Município": "Conselheiro Lafaiete",
        "Macrorregião de Saúde": "CENTRO SUL",
        "Latitude": -20.6603,
        "Longitude": -43.7861
      },
      "geometry": {
        "type": "Point",
        "coordinates": [-43.7861, -20.6603]
      }
    },
    {
      "type": "Feature",
      "properties": {
        "Nome do Hospital": "Hospital e Maternidade São José",
        "Município": "Conselheiro Lafaiete",
        "Macrorregião de Saúde": "CENTRO SUL",
        "Latitude": -20.6600,
        "Longitude": -43.7860
      },
      "geometry": {
        "type": "Point",
        "coordinates": [-43.7860, -20.6600]
      }
    },
    {
      "type": "Feature",
      "properties": {
        "Nome do Hospital": "Santa Casa de Misericórdia de São João del Rei",
        "Município": "São João del Rei",
        "Macrorregião de Saúde": "CENTRO SUL",
        "Latitude": -21.1356,
        "Longitude": -44.2617
      },
      "geometry": {
        "type": "Point",
        "coordinates": [-44.2617, -21.1356]
      }
    },
    {
      "type": "Feature",
      "properties": {
        "Nome do Hospital": "Complexo Hospitalar Samuel Libânio",
        "Município": "Pouso Alegre",
        "Macrorregião de Saúde": "EXTREMO SUL",
        "Latitude": -22.2300,
        "Longitude": -45.9364
      },
      "geometry": {
        "type": "Point",
        "coordinates": [-45.9364, -22.2300]
      }
    },
    {
      "type": "Feature",
      "properties": {
        "Nome do Hospital": "Hospital de Clínicas de Itajubá (AISI)",
        "Município": "Itajubá",
        "Macrorregião de Saúde": "EXTREMO SUL",
        "Latitude": -22.4256,
        "Longitude": -45.4528
      },
      "geometry": {
        "type": "Point",
        "coordinates": [-45.4528, -22.4256]
      }
    },
    {
      "type": "Feature",
      "properties": {
        "Nome do Hospital": "Santa Casa de Misericórdia de Poços de Caldas",
        "Município": "Poços de Caldas",
        "Macrorregião de Saúde": "EXTREMO SUL",
        "Latitude": -21.7875,
        "Longitude": -46.5614
      },
      "geometry": {
        "type": "Point",
        "coordinates": [-46.5614, -21.7875]
      }
    },
    {
      "type": "Feature",
      "properties": {
        "Nome do Hospital": "Santa Casa de Caridade de Diamantina",
        "Município": "Diamantina",
        "Macrorregião de Saúde": "JEQUITINHONHA",
        "Latitude": -18.2494,
        "Longitude": -43.6003
      },
      "geometry": {
        "type": "Point",
        "coordinates": [-43.6003, -18.2494]
      }
    },
    {
      "type": "Feature",
      "properties": {
        "Nome do Hospital": "Hospital Municipal de Governador Valadares",
        "Município": "Governador Valadares",
        "Macrorregião de Saúde": "LESTE",
        "Latitude": -18.8511,
        "Longitude": -41.9494
      },
      "geometry": {
        "type": "Point",
        "coordinates": [-41.9494, -18.8511]
      }
    },
    {
      "type": "Feature",
      "properties": {
        "Nome do Hospital": "Hospital Regional de Governador Valadares (HRGV)",
        "Município": "Governador Valadares",
        "Macrorregião de Saúde": "LESTE",
        "Latitude": -18.8510,
        "Longitude": -41.9490
      },
      "geometry": {
        "type": "Point",
        "coordinates": [-41.9490, -18.8510]
      }
    },
    {
      "type": "Feature",
      "properties": {
        "Nome do Hospital": "Hospital Antônio Gonçalves Ferreira / HAGF",
        "Município": "Ponte Nova",
        "Macrorregião de Saúde": "LESTE DO SUL",
        "Latitude": -20.4164,
        "Longitude": -42.9086
      },
      "geometry": {
        "type": "Point",
        "coordinates": [-42.9086, -20.4164]
      }
    },
    {
      "type": "Feature",
      "properties": {
        "Nome do Hospital": "Hospital Bom Samaritano",
        "Município": "Teófilo Otoni",
        "Macrorregião de Saúde": "NORDESTE",
        "Latitude": -17.8578,
        "Longitude": -41.5050
      },
      "geometry": {
        "type": "Point",
        "coordinates": [-41.5050, -17.8578]
      }
    },
    {
      "type": "Feature",
      "properties": {
        "Nome do Hospital": "Hospital Regional de Teófilo Otoni (HRTO)",
        "Município": "Teófilo Otoni",
        "Macrorregião de Saúde": "NORDESTE",
        "Latitude": -17.8575,
        "Longitude": -41.5055
      },
      "geometry": {
        "type": "Point",
        "coordinates": [-41.5055, -17.8575]
      }
    },
    {
      "type": "Feature",
      "properties": {
        "Nome do Hospital": "Hospital Municipal de Paracatu",
        "Município": "Paracatu",
        "Macrorregião de Saúde": "NOROESTE",
        "Latitude": -17.2222,
        "Longitude": -46.8747
      },
      "geometry": {
        "type": "Point",
        "coordinates": [-46.8747, -17.2222]
      }
    },
    {
      "type": "Feature",
      "properties": {
        "Nome do Hospital": "Hospital Regional Antônio Dias",
        "Município": "Patos de Minas",
        "Macrorregião de Saúde": "NOROESTE",
        "Latitude": -18.5789,
        "Longitude": -46.5181
      },
      "geometry": {
        "type": "Point",
        "coordinates": [-46.5181, -18.5789]
      }
    },
    {
      "type": "Feature",
      "properties": {
        "Nome do Hospital": "Hospital Dr. Moisés Magalhães Freire",
        "Município": "Pirapora",
        "Macrorregião de Saúde": "NORTE",
        "Latitude": -17.3450,
        "Longitude": -44.9419
      },
      "geometry": {
        "type": "Point",
        "coordinates": [-44.9419, -17.3450]
      }
    },
    {
      "type": "Feature",
      "properties": {
        "Nome do Hospital": "Hospital Municipal Dr. Oswaldo Prediliano Santana",
        "Município": "Salinas",
        "Macrorregião de Saúde": "NORTE",
        "Latitude": -15.8525,
        "Longitude": -42.1742
      },
      "geometry": {
        "type": "Point",
        "coordinates": [-42.1742, -15.8525]
      }
    },
    {
      "type": "Feature",
      "properties": {
        "Nome do Hospital": "Hospital Regional de Janaúba",
        "Município": "Janaúba",
        "Macrorregião de Saúde": "NORTE",
        "Latitude": -15.8025,
        "Longitude": -43.3086
      },
      "geometry": {
        "type": "Point",
        "coordinates": [-43.3086, -15.8025]
      }
    },
    {
      "type": "Feature",
      "properties": {
        "Nome do Hospital": "Hospital Santo Antônio",
        "Município": "Taiobeiras",
        "Macrorregião de Saúde": "NORTE",
        "Latitude": -15.8078,
        "Longitude": -42.2331
      },
      "geometry": {
        "type": "Point",
        "coordinates": [-42.2331, -15.8078]
      }
    },
    {
      "type": "Feature",
      "properties": {
        "Nome do Hospital": "Hospital das Clínicas Dr. Mário Ribeiro da Silveira",
        "Município": "Montes Claros",
        "Macrorregião de Saúde": "NORTE",
        "Latitude": -16.7350,
        "Longitude": -43.8617
      },
      "geometry": {
        "type": "Point",
        "coordinates": [-43.8617, -16.7350]
      }
    },
    {
      "type": "Feature",
      "properties": {
        "Nome do Hospital": "Santa Casa de Misericórdia de Montes Claros",
        "Município": "Montes Claros",
        "Macrorregião de Saúde": "NORTE",
        "Latitude": -16.7355,
        "Longitude": -43.8620
      },
      "geometry": {
        "type": "Point",
        "coordinates": [-43.8620, -16.7355]
      }
    },
    {
      "type": "Feature",
      "properties": {
        "Nome do Hospital": "Hospital Manoel Gonçalves",
        "Município": "Itaúna",
        "Macrorregião de Saúde": "OESTE",
        "Latitude": -20.0753,
        "Longitude": -44.5764
      },
      "geometry": {
        "type": "Point",
        "coordinates": [-44.5764, -20.0753]
      }
    },
    {
      "type": "Feature",
      "properties": {
        "Nome do Hospital": "Hospital Nossa Senhora da Conceição",
        "Município": "Pará de Minas",
        "Macrorregião de Saúde": "OESTE",
        "Latitude": -19.8600,
        "Longitude": -44.6083
      },
      "geometry": {
        "type": "Point",
        "coordinates": [-44.6083, -19.8600]
      }
    },
    {
      "type": "Feature",
      "properties": {
        "Nome do Hospital": "Hospital Regional de Divinópolis (HRD)",
        "Município": "Divinópolis",
        "Macrorregião de Saúde": "OESTE",
        "Latitude": -20.1389,
        "Longitude": -44.8839
      },
      "geometry": {
        "type": "Point",
        "coordinates": [-44.8839, -20.1389]
      }
    },
    {
      "type": "Feature",
      "properties": {
        "Nome do Hospital": "Hospital São Carlos",
        "Município": "Lagoa da Prata",
        "Macrorregião de Saúde": "OESTE",
        "Latitude": -20.0225,
        "Longitude": -45.5436
      },
      "geometry": {
        "type": "Point",
        "coordinates": [-45.5436, -20.0225]
      }
    },
    {
      "type": "Feature",
      "properties": {
        "Nome do Hospital": "Hospital São João de Deus",
        "Município": "Divinópolis",
        "Macrorregião de Saúde": "OESTE",
        "Latitude": -20.1436,
        "Longitude": -44.8861
      },
      "geometry": {
        "type": "Point",
        "coordinates": [-44.8861, -20.1436]
      }
    },
    {
      "type": "Feature",
      "properties": {
        "Nome do Hospital": "Hospital São Luiz",
        "Município": "Formiga",
        "Macrorregião de Saúde": "OESTE",
        "Latitude": -20.4644,
        "Longitude": -45.4264
      },
      "geometry": {
        "type": "Point",
        "coordinates": [-45.4264, -20.4644]
      }
    },
    {
      "type": "Feature",
      "properties": {
        "Nome do Hospital": "Santa Casa de Campo Belo",
        "Município": "Campo Belo",
        "Macrorregião de Saúde": "OESTE",
        "Latitude": -20.8975,
        "Longitude": -45.2772
      },
      "geometry": {
        "type": "Point",
        "coordinates": [-45.2772, -20.8975]
      }
    },
    {
      "type": "Feature",
      "properties": {
        "Nome do Hospital": "Casa de Caridade de Carangola",
        "Município": "Carangola",
        "Macrorregião de Saúde": "SUDESTE",
        "Latitude": -20.7331,
        "Longitude": -42.0294
      },
      "geometry": {
        "type": "Point",
        "coordinates": [-42.0294, -20.7331]
      }
    },
    {
      "type": "Feature",
      "properties": {
        "Nome do Hospital": "Casa de Caridade de Muriaé (Hospital do Câncer de Muriaé)",
        "Município": "Muriaé",
        "Macrorregião de Saúde": "SUDESTE",
        "Latitude": -21.1306,
        "Longitude": -42.3664
      },
      "geometry": {
        "type": "Point",
        "coordinates": [-42.3664, -21.1306]
      }
    },
    {
      "type": "Feature",
      "properties": {
        "Nome do Hospital": "Hospital Regional João Penido",
        "Município": "Juiz de Fora",
        "Macrorregião de Saúde": "SUDESTE",
        "Latitude": -21.7642,
        "Longitude": -43.3503
      },
      "geometry": {
        "type": "Point",
        "coordinates": [-43.3503, -21.7642]
      }
    },
    {
      "type": "Feature",
      "properties": {
        "Nome do Hospital": "Hospital Santa Isabel",
        "Município": "Ubá",
        "Macrorregião de Saúde": "SUDESTE",
        "Latitude": -21.1200,
        "Longitude": -42.9428
      },
      "geometry": {
        "type": "Point",
        "coordinates": [-42.9428, -21.1200]
      }
    },
    {
      "type": "Feature",
      "properties": {
        "Nome do Hospital": "Hospital e Maternidade Therezinha de Jesus",
        "Município": "Juiz de Fora",
        "Macrorregião de Saúde": "SUDESTE",
        "Latitude": -21.7640,
        "Longitude": -43.3500
      },
      "geometry": {
        "type": "Point",
        "coordinates": [-43.3500, -21.7640]
      }
    },
    {
      "type": "Feature",
      "properties": {
        "Nome do Hospital": "Irmandade da Santa Casa de Misericórdia de Passos",
        "Município": "Passos",
        "Macrorregião de Saúde": "SUDOESTE",
        "Latitude": -20.7192,
        "Longitude": -46.6094
      },
      "geometry": {
        "type": "Point",
        "coordinates": [-46.6094, -20.7192]
      }
    },
    {
      "type": "Feature",
      "properties": {
        "Nome do Hospital": "Santa Casa de Misericórdia de Piumhi",
        "Município": "Piumhi",
        "Macrorregião de Saúde": "SUDOESTE",
        "Latitude": -20.4694,
        "Longitude": -45.9578
      },
      "geometry": {
        "type": "Point",
        "coordinates": [-45.9578, -20.4694]
      }
    },
    {
      "type": "Feature",
      "properties": {
        "Nome do Hospital": "Santa Casa de Misericórdia de São Sebastião do Paraíso",
        "Município": "São Sebastião do Paraíso",
        "Macrorregião de Saúde": "SUDOESTE",
        "Latitude": -20.9169,
        "Longitude": -46.9911
      },
      "geometry": {
        "type": "Point",
        "coordinates": [-46.9911, -20.9169]
      }
    },
    {
      "type": "Feature",
      "properties": {
        "Nome do Hospital": "Hospital Universitário Alfenas / HAVelano",
        "Município": "Alfenas",
        "Macrorregião de Saúde": "SUL",
        "Latitude": -21.4292,
        "Longitude": -45.9472
      },
      "geometry": {
        "type": "Point",
        "coordinates": [-45.9472, -21.4292]
      }
    },
    {
      "type": "Feature",
      "properties": {
        "Nome do Hospital": "Hospitais polos de Varginha",
        "Município": "Varginha",
        "Macrorregião de Saúde": "SUL",
        "Latitude": -21.5514,
        "Longitude": -45.4303
      },
      "geometry": {
        "type": "Point",
        "coordinates": [-45.4303, -21.5514]
      }
    },
    {
      "type": "Feature",
      "properties": {
        "Nome do Hospital": "Hospital de Clínicas da UFU",
        "Município": "Uberlândia",
        "Macrorregião de Saúde": "TRIÂNGULO DO NORTE",
        "Latitude": -18.9186,
        "Longitude": -48.2578
      },
      "geometry": {
        "type": "Point",
        "coordinates": [-48.2578, -18.9186]
      }
    },
    {
      "type": "Feature",
      "properties": {
        "Nome do Hospital": "Hospital de Clínicas de Uberaba / HC-UFTM",
        "Município": "Uberaba",
        "Macrorregião de Saúde": "TRIÂNGULO DO SUL",
        "Latitude": -19.7483,
        "Longitude": -47.9319
      },
      "geometry": {
        "type": "Point",
        "coordinates": [-47.9319, -19.7483]
      }
    },
    {
      "type": "Feature",
      "properties": {
        "Nome do Hospital": "Hospital Márcio Cunha",
        "Município": "Ipatinga",
        "Macrorregião de Saúde": "VALE DO AÇO",
        "Latitude": -19.4972,
        "Longitude": -42.5394
      },
      "geometry": {
        "type": "Point",
        "coordinates": [-42.5394, -19.4972]
      }
    }
  ]
}
